ONEWEB-0710             
1 55173U 23004AK  23250.64356723 -.00078454  00000+0 -16890+0 0  9990
2 55173  87.9669 207.2852 0001866  80.2254 279.9096 13.30271570 34105
ONEWEB-0711             
1 55174U 23004AL  23250.34303680 -.00000403  00000+0 -11730-2 0  9992
2 55174  87.8935 222.4525 0001011  65.9415 294.1819 13.11408191 32951
ONEWEB-0713             
1 55175U 23004AM  23250.43952385  .00000320  00000+0  86628-3 0  9990
2 55175  87.8935 222.4430 0001301  83.5693 276.5583 13.11410883 32956
ONEWEB-0715             
1 55176U 23004AN  23250.35787837 -.00000200  00000+0 -60151-3 0  9992
2 55176  87.8920 222.4762 0001796  88.1142 272.0192 13.11408333 32984
ONEWEB-0716             
1 55177U 23004AP  23250.83209322  .00000070  00000+0  12031-3 0  9991
2 55177  87.9482 207.2646 0002460  90.3469 269.7951 13.30687493 34128
ONEWEB-0717             
1 55178U 23004AQ  23250.88592821 -.00001724  00000+0 -36774-2 0  9994
2 55178  87.9598 207.1928 0008710 153.5561 206.6024 13.30809973 34184
ONEWEB-0719             
1 55179U 23004AR  23250.36123420  .00000058  00000+0  94350-4 0  9996
2 55179  87.9662 207.2817 0004729 143.3354 216.8110 13.31506338 34064
ONEWEB-0530             
1 55796U 23029A   23250.91667824 -.00995288  00000+0 -38562+0 0  9998
2 55796  86.9421 119.7944 0002353 112.6907  40.7852 14.33376040 27789
